start=new Date('2022-06-27T00:00:00.000Z').valueOf();
sats=[{"TLE_LINE2":"2 46711  53.0540 190.7354 0001951  51.0900 309.0262 15.06388936 93360","COUNTRY_CODE":"US","FILE":"3503441","ELEMENT_SET_NO":"999","REF_FRAME":"TEME","LAUNCH_DATE":"2020-10-18","CENTER_NAME":"EARTH","EPHEMERIS_TYPE":"0","OBJECT_ID":"2020-073AT","MEAN_MOTION_DDOT":"0.0000000000000","RA_OF_ASC_NODE":"190.7354","REV_AT_EPOCH":"9336","SEMIMAJOR_AXIS":"6925.382","BSTAR":"-0.00002279200000","INCLINATION":"53.0540","OBJECT_TYPE":"PAYLOAD","RCS_SIZE":"LARGE","PERIOD":"95.593","MEAN_ANOMALY":"309.0262","APOAPSIS":"548.599","TIME_SYSTEM":"UTC","ECCENTRICITY":"0.00019510","MEAN_MOTION":"15.06388936","OBJECT_NAME":"STARLINK-1813","EPOCH":"2022-06-26T17:55:50.471616","MEAN_MOTION_DOT":"-0.00000621","GP_ID":"206925539","NORAD_CAT_ID":"46711","DECAY_DATE":null,"TLE_LINE1":"1 46711U 20073AT  22177.74711194 -.00000621  00000-0 -22792-4 0  9991","SITE":"AFETR","PERIAPSIS":"545.896","ARG_OF_PERICENTER":"51.0900","MEAN_ELEMENT_THEORY":"SGP4","CLASSIFICATION_TYPE":"U"},{"GP_ID":"206894959","MEAN_MOTION_DOT":"0.00001065","ARG_OF_PERICENTER":"62.7563","SITE":"AFETR","PERIAPSIS":"545.983","TLE_LINE1":"1 46712U 20073AU  22177.32692508  .00001065  00000-0  90362-4 0  9992","DECAY_DATE":null,"NORAD_CAT_ID":"46712","CLASSIFICATION_TYPE":"U","MEAN_ELEMENT_THEORY":"SGP4","ECCENTRICITY":"0.00017660","TIME_SYSTEM":"UTC","APOAPSIS":"548.429","OBJECT_NAME":"STARLINK-1814","EPOCH":"2022-06-26T07:50:46.326912","MEAN_MOTION":"15.06402347","REV_AT_EPOCH":"9329","SEMIMAJOR_AXIS":"6925.341","RA_OF_ASC_NODE":"192.7280","INCLINATION":"53.0530","BSTAR":"0.00009036200000","RCS_SIZE":"LARGE","OBJECT_TYPE":"PAYLOAD","MEAN_ANOMALY":"297.3606","PERIOD":"95.592","ELEMENT_SET_NO":"999","COUNTRY_CODE":"US","TLE_LINE2":"2 46712  53.0530 192.7280 0001766  62.7563 297.3606 15.06402347 93294","FILE":"3503181","LAUNCH_DATE":"2020-10-18","REF_FRAME":"TEME","OBJECT_ID":"2020-073AU","EPHEMERIS_TYPE":"0","CENTER_NAME":"EARTH","MEAN_MOTION_DDOT":"0.0000000000000"},{"REF_FRAME":"TEME","LAUNCH_DATE":"2020-10-18","TLE_LINE2":"2 46713  53.0529 191.9988 0001854  49.6151 310.4999 15.06387321 93313","FILE":"3503181","COUNTRY_CODE":"US","ELEMENT_SET_NO":"999","MEAN_MOTION_DDOT":"0.0000000000000","CENTER_NAME":"EARTH","EPHEMERIS_TYPE":"0","OBJECT_ID":"2020-073AV","BSTAR":"-0.00006509200000","INCLINATION":"53.0529","RA_OF_ASC_NODE":"191.9988","SEMIMAJOR_AXIS":"6925.387","REV_AT_EPOCH":"9331","PERIOD":"95.593","MEAN_ANOMALY":"310.4999","OBJECT_TYPE":"PAYLOAD","RCS_SIZE":"LARGE","TIME_SYSTEM":"UTC","APOAPSIS":"548.536","ECCENTRICITY":"0.00018540","MEAN_MOTION":"15.06387321","EPOCH":"2022-06-26T11:00:28.235232","OBJECT_NAME":"STARLINK-1815","MEAN_MOTION_DOT":"-0.00001251","GP_ID":"206894208","MEAN_ELEMENT_THEORY":"SGP4","CLASSIFICATION_TYPE":"U","DECAY_DATE":null,"NORAD_CAT_ID":"46713","TLE_LINE1":"1 46713U 20073AV  22177.45866013 -.00001251  00000-0 -65092-4 0  9992","SITE":"AFETR","ARG_OF_PERICENTER":"49.6151","PERIAPSIS":"545.968"},{"MEAN_MOTION":"15.06390952","OBJECT_NAME":"STARLINK-1816","EPOCH":"2022-06-26T10:45:55.013760","APOAPSIS":"548.333","TIME_SYSTEM":"UTC","ECCENTRICITY":"0.00015770","CLASSIFICATION_TYPE":"U","MEAN_ELEMENT_THEORY":"SGP4","NORAD_CAT_ID":"46714","DECAY_DATE":null,"TLE_LINE1":"1 46714U 20073AW  22177.44855340 -.00001060  00000-0 -52267-4 0  9991","PERIAPSIS":"546.149","SITE":"AFETR","ARG_OF_PERICENTER":"53.1210","MEAN_MOTION_DOT":"-0.00001060","GP_ID":"206894457","MEAN_MOTION_DDOT":"0.0000000000000","EPHEMERIS_TYPE":"0","CENTER_NAME":"EARTH","OBJECT_ID":"2020-073AW","REF_FRAME":"TEME","LAUNCH_DATE":"2020-10-18","COUNTRY_CODE":"US","TLE_LINE2":"2 46714  53.0532 192.0655 0001577  53.1210 306.9923 15.06390952 93310","FILE":"3503181","ELEMENT_SET_NO":"999","PERIOD":"95.593","MEAN_ANOMALY":"306.9923","OBJECT_TYPE":"PAYLOAD","RCS_SIZE":"LARGE","BSTAR":"-0.00005226700000","INCLINATION":"53.0532","RA_OF_ASC_NODE":"192.0655","REV_AT_EPOCH":"9331","SEMIMAJOR_AXIS":"6925.376"},{"MEAN_MOTION_DOT":"0.00000989","GP_ID":"206925041","TLE_LINE1":"1 46715U 20073AX  22177.77658463  .00000989  00000-0  85276-4 0  9998","PERIAPSIS":"545.740","SITE":"AFETR","ARG_OF_PERICENTER":"57.2635","DECAY_DATE":null,"NORAD_CAT_ID":"46715","CLASSIFICATION_TYPE":"U","MEAN_ELEMENT_THEORY":"SGP4","APOAPSIS":"548.645","TIME_SYSTEM":"UTC","ECCENTRICITY":"0.00020970","MEAN_MOTION":"15.06406868","OBJECT_NAME":"STARLINK-1817","EPOCH":"2022-06-26T18:38:16.912032","RA_OF_ASC_NODE":"190.6053","REV_AT_EPOCH":"9336","SEMIMAJOR_AXIS":"6925.328","INCLINATION":"53.0545","BSTAR":"0.00008527600000","OBJECT_TYPE":"PAYLOAD","RCS_SIZE":"LARGE","MEAN_ANOMALY":"302.8556","PERIOD":"95.592","COUNTRY_CODE":"US","TLE_LINE2":"2 46715  53.0545 190.6053 0002097  57.2635 302.8556 15.06406868 93361","FILE":"3503441","ELEMENT_SET_NO":"999","LAUNCH_DATE":"2020-10-18","REF_FRAME":"TEME","OBJECT_ID":"2020-073AX","CENTER_NAME":"EARTH","EPHEMERIS_TYPE":"0","MEAN_MOTION_DDOT":"0.0000000000000"},{"APOAPSIS":"548.282","TIME_SYSTEM":"UTC","ECCENTRICITY":"0.00015010","MEAN_MOTION":"15.06390608","EPOCH":"2022-06-26T19:00:11.798208","OBJECT_NAME":"STARLINK-1818","MEAN_MOTION_DOT":"-0.00000669","GP_ID":"206926291","TLE_LINE1":"1 46716U 20073AY  22177.79180322 -.00000669  00000-0 -26037-4 0  9992","ARG_OF_PERICENTER":"58.8429","SITE":"AFETR","PERIAPSIS":"546.203","NORAD_CAT_ID":"46716","DECAY_DATE":null,"MEAN_ELEMENT_THEORY":"SGP4","CLASSIFICATION_TYPE":"U","TLE_LINE2":"2 46716  53.0523 205.5209 0001501  58.8429 301.2707 15.06390608 93156","FILE":"3503441","COUNTRY_CODE":"US","ELEMENT_SET_NO":"999","LAUNCH_DATE":"2020-10-18","REF_FRAME":"TEME","OBJECT_ID":"2020-073AY","CENTER_NAME":"EARTH","EPHEMERIS_TYPE":"0","MEAN_MOTION_DDOT":"0.0000000000000","RA_OF_ASC_NODE":"205.5209","REV_AT_EPOCH":"9315","SEMIMAJOR_AXIS":"6925.377","INCLINATION":"53.0523","BSTAR":"-0.00002603700000","OBJECT_TYPE":"PAYLOAD","RCS_SIZE":"LARGE","MEAN_ANOMALY":"301.2707","PERIOD":"95.593"},{"MEAN_ELEMENT_THEORY":"SGP4","CLASSIFICATION_TYPE":"U","DECAY_DATE":null,"NORAD_CAT_ID":"46717","ARG_OF_PERICENTER":"66.2960","SITE":"AFETR","PERIAPSIS":"546.017","TLE_LINE1":"1 46717U 20073AZ  22177.72867519  .00000439  00000-0  48370-4 0  9993","GP_ID":"206924768","MEAN_MOTION_DOT":"0.00000439","OBJECT_NAME":"STARLINK-1820","EPOCH":"2022-06-26T17:29:17.536416","MEAN_MOTION":"15.06402304","ECCENTRICITY":"0.00017170","TIME_SYSTEM":"UTC","APOAPSIS":"548.396","PERIOD":"95.592","MEAN_ANOMALY":"293.8209","RCS_SIZE":"LARGE","OBJECT_TYPE":"PAYLOAD","BSTAR":"0.00004837000000","INCLINATION":"53.0548","SEMIMAJOR_AXIS":"6925.341","REV_AT_EPOCH":"9335","RA_OF_ASC_NODE":"190.8133","MEAN_MOTION_DDOT":"0.0000000000000","EPHEMERIS_TYPE":"0","CENTER_NAME":"EARTH","OBJECT_ID":"2020-073AZ","REF_FRAME":"TEME","LAUNCH_DATE":"2020-10-18","ELEMENT_SET_NO":"999","TLE_LINE2":"2 46717  53.0548 190.8133 0001717  66.2960 293.8209 15.06402304 93350","COUNTRY_CODE":"US","FILE":"3503441"},{"DECAY_DATE":null,"NORAD_CAT_ID":"46718","PERIAPSIS":"546.037","SITE":"AFETR","ARG_OF_PERICENTER":"63.5468","TLE_LINE1":"1 46718U 20073BA  22177.76873269  .00000905  00000-0  79632-4 0  9990","MEAN_ELEMENT_THEORY":"SGP4","CLASSIFICATION_TYPE":"U","GP_ID":"206924791","MEAN_MOTION_DOT":"0.00000905","OBJECT_NAME":"STARLINK-1821","EPOCH":"2022-06-26T18:26:58.504416","MEAN_MOTION":"15.06398326","ECCENTRICITY":"0.00017070","APOAPSIS":"548.401","TIME_SYSTEM":"UTC","RCS_SIZE":"LARGE","OBJECT_TYPE":"PAYLOAD","PERIOD":"95.592","MEAN_ANOMALY":"296.5696","REV_AT_EPOCH":"9315","SEMIMAJOR_AXIS":"6925.354","RA_OF_ASC_NODE":"205.6060","BSTAR":"0.00007963200000","INCLINATION":"53.0530","EPHEMERIS_TYPE":"0","CENTER_NAME":"EARTH","OBJECT_ID":"2020-073BA","MEAN_MOTION_DDOT":"0.0000000000000","ELEMENT_SET_NO":"999","FILE":"3503441","TLE_LINE2":"2 46718  53.0530 205.6060 0001707  63.5468 296.5696 15.06398326 93154","COUNTRY_CODE":"US","REF_FRAME":"TEME","LAUNCH_DATE":"2020-10-18"},{"GP_ID":"206925540","MEAN_MOTION_DOT":"0.00001339","DECAY_DATE":null,"NORAD_CAT_ID":"46719","SITE":"AFETR","PERIAPSIS":"545.953","ARG_OF_PERICENTER":"58.9239","TLE_LINE1":"1 46719U 20073BB  22177.68630640  .00001339  00000-0  10878-3 0  9994","MEAN_ELEMENT_THEORY":"SGP4","CLASSIFICATION_TYPE":"U","ECCENTRICITY":"0.00018130","TIME_SYSTEM":"UTC","APOAPSIS":"548.464","OBJECT_NAME":"STARLINK-1822","EPOCH":"2022-06-26T16:28:16.872960","MEAN_MOTION":"15.06401717","REV_AT_EPOCH":"9363","SEMIMAJOR_AXIS":"6925.343","RA_OF_ASC_NODE":"171.0000","BSTAR":"0.00010878000000","INCLINATION":"53.0537","RCS_SIZE":"LARGE","OBJECT_TYPE":"PAYLOAD","PERIOD":"95.592","MEAN_ANOMALY":"301.1927","ELEMENT_SET_NO":"999","FILE":"3503441","TLE_LINE2":"2 46719  53.0537 171.0000 0001813  58.9239 301.1927 15.06401717 93636","COUNTRY_CODE":"US","REF_FRAME":"TEME","LAUNCH_DATE":"2020-10-18","EPHEMERIS_TYPE":"0","CENTER_NAME":"EARTH","OBJECT_ID":"2020-073BB","MEAN_MOTION_DDOT":"0.0000000000000"},{"REF_FRAME":"TEME","LAUNCH_DATE":"2020-10-18","TLE_LINE2":"2 46720  53.0479  72.7596 0002934 100.5220 259.6130 15.75766933 95038","FILE":"3503441","COUNTRY_CODE":"US","ELEMENT_SET_NO":"999","MEAN_MOTION_DDOT":"0.0000000000000","EPHEMERIS_TYPE":"0","CENTER_NAME":"EARTH","OBJECT_ID":"2020-073BC","BSTAR":"0.00064085000000","INCLINATION":"53.0479","RA_OF_ASC_NODE":"72.7596","REV_AT_EPOCH":"9503","SEMIMAJOR_AXIS":"6720.587","PERIOD":"91.384","MEAN_ANOMALY":"259.6130","OBJECT_TYPE":"PAYLOAD","RCS_SIZE":"LARGE","TIME_SYSTEM":"UTC","APOAPSIS":"344.423","ECCENTRICITY":"0.00029340","MEAN_MOTION":"15.75766933","EPOCH":"2022-06-26T21:58:17.895360","OBJECT_NAME":"STARLINK-1823","MEAN_MOTION_DOT":"0.00101119","GP_ID":"206925792","CLASSIFICATION_TYPE":"U","MEAN_ELEMENT_THEORY":"SGP4","NORAD_CAT_ID":"46720","DECAY_DATE":null,"TLE_LINE1":"1 46720U 20073BC  22177.91548490  .00101119  00000-0  64085-3 0  9999","PERIAPSIS":"340.480","SITE":"AFETR","ARG_OF_PERICENTER":"100.5220"}];
